ORBCOMM FM05 [-]        
1 25117U 97084F   24014.27228238  .00003185  00000+0  10049-2 0  9991
2 25117  45.0172 336.2824 0000603 129.1183 230.9721 14.41999939365465
ORBCOMM FM06 [+]        
1 25118U 97084G   24014.25945730  .00003544  00000+0  11135-2 0  9999
2 25118  45.0165 336.5227 0000354 248.8400 255.6906 14.41979485366376
ORBCOMM FM07 [-]        
1 25119U 97084H   24014.28630720  .00003411  00000+0  10749-2 0  9996
2 25119  45.0159 336.8713 0001398 101.4784 258.6223 14.41916812366371
ORBCOMM FM03 [-]        
1 25158U 98007B   24014.92415411  .00002808  00000+0  10872-2 0  9990
2 25158 107.9732 151.1101 0044991  75.1494 285.4621 14.31708503349656
ORBCOMM FM04 [+]        
1 25159U 98007C   24014.93363157  .00002456  00000+0  95423-3 0  9996
2 25159 107.9718 153.9886 0040527  72.8894 287.6677 14.31963862349825
ORBCOMM FM17 [-]        
1 25413U 98046A   24014.84899624  .00001942  00000+0  75858-3 0  9994
2 25413  44.9932 183.8213 0002767 140.6992 219.4055 14.32695972328633
ORBCOMM FM18 [-]        
1 25414U 98046B   24014.64427890  .00003038  00000+0  10988-2 0  9995
2 25414  44.9935 114.2898 0005666 199.8091 160.2537 14.35316461329524
ORBCOMM FM19 [+]        
1 25415U 98046C   24014.41016145  .00002957  00000+0  10740-2 0  9993
2 25415  44.9942 116.6526 0004362 195.6742 277.3606 14.35164925329451
