<?xml version="1.0" encoding="UTF-8"?>
<ndm xmlns:xsi="http://www.w3.org/2001/XMLSchema-instance" xsi:noNamespaceSchemaLocation="https://sanaregistry.org/r/ndmxml_unqualified/ndmxml-2.0.0-master-2.0.xsd">
<omm id="CCSDS_OMM_VERS" version="2.0">
<header><CREATION_DATE/><ORIGINATOR/></header><body><segment><metadata><OBJECT_NAME>ORBCOMM FM05 [-]</OBJECT_NAME><OBJECT_ID>1997-084F</OBJECT_ID><CENTER_NAME>EARTH</CENTER_NAME><REF_FRAME>TEME</REF_FRAME><TIME_SYSTEM>UTC</TIME_SYSTEM><MEAN_ELEMENT_THEORY>SGP4</MEAN_ELEMENT_THEORY></metadata><data><meanElements><EPOCH>2024-01-14T06:32:05.197632</EPOCH><MEAN_MOTION>14.41999939</MEAN_MOTION><ECCENTRICITY>.0000603</ECCENTRICITY><INCLINATION>45.0172</INCLINATION><RA_OF_ASC_NODE>336.2824</RA_OF_ASC_NODE><ARG_OF_PERICENTER>129.1183</ARG_OF_PERICENTER><MEAN_ANOMALY>230.9721</MEAN_ANOMALY></meanElements><tleParameters><EPHEMERIS_TYPE>0</EPHEMERIS_TYPE><CLASSIFICATION_TYPE>U</CLASSIFICATION_TYPE><NORAD_CAT_ID>25117</NORAD_CAT_ID><ELEMENT_SET_NO>999</ELEMENT_SET_NO><REV_AT_EPOCH>36546</REV_AT_EPOCH><BSTAR>.10049E-2</BSTAR><MEAN_MOTION_DOT>.3185E-4</MEAN_MOTION_DOT><MEAN_MOTION_DDOT>0</MEAN_MOTION_DDOT></tleParameters></data></segment></body></omm>
<omm id="CCSDS_OMM_VERS" version="2.0">
<header><CREATION_DATE/><ORIGINATOR/></header><body><segment><metadata><OBJECT_NAME>ORBCOMM FM06 [+]</OBJECT_NAME><OBJECT_ID>1997-084G</OBJECT_ID><CENTER_NAME>EARTH</CENTER_NAME><REF_FRAME>TEME</REF_FRAME><TIME_SYSTEM>UTC</TIME_SYSTEM><MEAN_ELEMENT_THEORY>SGP4</MEAN_ELEMENT_THEORY></metadata><data><meanElements><EPOCH>2024-01-14T06:13:37.110720</EPOCH><MEAN_MOTION>14.41979485</MEAN_MOTION><ECCENTRICITY>.0000354</ECCENTRICITY><INCLINATION>45.0165</INCLINATION><RA_OF_ASC_NODE>336.5227</RA_OF_ASC_NODE><ARG_OF_PERICENTER>248.8400</ARG_OF_PERICENTER><MEAN_ANOMALY>255.6906</MEAN_ANOMALY></meanElements><tleParameters><EPHEMERIS_TYPE>0</EPHEMERIS_TYPE><CLASSIFICATION_TYPE>U</CLASSIFICATION_TYPE><NORAD_CAT_ID>25118</NORAD_CAT_ID><ELEMENT_SET_NO>999</ELEMENT_SET_NO><REV_AT_EPOCH>36637</REV_AT_EPOCH><BSTAR>.11135E-2</BSTAR><MEAN_MOTION_DOT>.3544E-4</MEAN_MOTION_DOT><MEAN_MOTION_DDOT>0</MEAN_MOTION_DDOT></tleParameters></data></segment></body></omm>
<omm id="CCSDS_OMM_VERS" version="2.0">
<header><CREATION_DATE/><ORIGINATOR/></header><body><segment><metadata><OBJECT_NAME>ORBCOMM FM07 [-]</OBJECT_NAME><OBJECT_ID>1997-084H</OBJECT_ID><CENTER_NAME>EARTH</CENTER_NAME><REF_FRAME>TEME</REF_FRAME><TIME_SYSTEM>UTC</TIME_SYSTEM><MEAN_ELEMENT_THEORY>SGP4</MEAN_ELEMENT_THEORY></metadata><data><meanElements><EPOCH>2024-01-14T06:52:16.942080</EPOCH><MEAN_MOTION>14.41916812</MEAN_MOTION><ECCENTRICITY>.0001398</ECCENTRICITY><INCLINATION>45.0159</INCLINATION><RA_OF_ASC_NODE>336.8713</RA_OF_ASC_NODE><ARG_OF_PERICENTER>101.4784</ARG_OF_PERICENTER><MEAN_ANOMALY>258.6223</MEAN_ANOMALY></meanElements><tleParameters><EPHEMERIS_TYPE>0</EPHEMERIS_TYPE><CLASSIFICATION_TYPE>U</CLASSIFICATION_TYPE><NORAD_CAT_ID>25119</NORAD_CAT_ID><ELEMENT_SET_NO>999</ELEMENT_SET_NO><REV_AT_EPOCH>36637</REV_AT_EPOCH><BSTAR>.10749E-2</BSTAR><MEAN_MOTION_DOT>.3411E-4</MEAN_MOTION_DOT><MEAN_MOTION_DDOT>0</MEAN_MOTION_DDOT></tleParameters></data></segment></body></omm>
<omm id="CCSDS_OMM_VERS" version="2.0">
<header><CREATION_DATE/><ORIGINATOR/></header><body><segment><metadata><OBJECT_NAME>ORBCOMM FM03 [-]</OBJECT_NAME><OBJECT_ID>1998-007B</OBJECT_ID><CENTER_NAME>EARTH</CENTER_NAME><REF_FRAME>TEME</REF_FRAME><TIME_SYSTEM>UTC</TIME_SYSTEM><MEAN_ELEMENT_THEORY>SGP4</MEAN_ELEMENT_THEORY></metadata><data><meanElements><EPOCH>2024-01-14T22:10:46.915104</EPOCH><MEAN_MOTION>14.31708503</MEAN_MOTION><ECCENTRICITY>.0044991</ECCENTRICITY><INCLINATION>107.9732</INCLINATION><RA_OF_ASC_NODE>151.1101</RA_OF_ASC_NODE><ARG_OF_PERICENTER>75.1494</ARG_OF_PERICENTER><MEAN_ANOMALY>285.4621</MEAN_ANOMALY></meanElements><tleParameters><EPHEMERIS_TYPE>0</EPHEMERIS_TYPE><CLASSIFICATION_TYPE>U</CLASSIFICATION_TYPE><NORAD_CAT_ID>25158</NORAD_CAT_ID><ELEMENT_SET_NO>999</ELEMENT_SET_NO><REV_AT_EPOCH>34965</REV_AT_EPOCH><BSTAR>.10872E-2</BSTAR><MEAN_MOTION_DOT>.2808E-4</MEAN_MOTION_DOT><MEAN_MOTION_DDOT>0</MEAN_MOTION_DDOT></tleParameters></data></segment></body></omm>
<omm id="CCSDS_OMM_VERS" version="2.0">
<header><CREATION_DATE/><ORIGINATOR/></header><body><segment><metadata><OBJECT_NAME>ORBCOMM FM04 [+]</OBJECT_NAME><OBJECT_ID>1998-007C</OBJECT_ID><CENTER_NAME>EARTH</CENTER_NAME><REF_FRAME>TEME</REF_FRAME><TIME_SYSTEM>UTC</TIME_SYSTEM><MEAN_ELEMENT_THEORY>SGP4</MEAN_ELEMENT_THEORY></metadata><data><meanElements><EPOCH>2024-01-14T22:24:25.767648</EPOCH><MEAN_MOTION>14.31963862</MEAN_MOTION><ECCENTRICITY>.0040527</ECCENTRICITY><INCLINATION>107.9718</INCLINATION><RA_OF_ASC_NODE>153.9886</RA_OF_ASC_NODE><ARG_OF_PERICENTER>72.8894</ARG_OF_PERICENTER><MEAN_ANOMALY>287.6677</MEAN_ANOMALY></meanElements><tleParameters><EPHEMERIS_TYPE>0</EPHEMERIS_TYPE><CLASSIFICATION_TYPE>U</CLASSIFICATION_TYPE><NORAD_CAT_ID>25159</NORAD_CAT_ID><ELEMENT_SET_NO>999</ELEMENT_SET_NO><REV_AT_EPOCH>34982</REV_AT_EPOCH><BSTAR>.95423E-3</BSTAR><MEAN_MOTION_DOT>.2456E-4</MEAN_MOTION_DOT><MEAN_MOTION_DDOT>0</MEAN_MOTION_DDOT></tleParameters></data></segment></body></omm>
<omm id="CCSDS_OMM_VERS" version="2.0">
<header><CREATION_DATE/><ORIGINATOR/></header><body><segment><metadata><OBJECT_NAME>ORBCOMM FM17 [-]</OBJECT_NAME><OBJECT_ID>1998-046A</OBJECT_ID><CENTER_NAME>EARTH</CENTER_NAME><REF_FRAME>TEME</REF_FRAME><TIME_SYSTEM>UTC</TIME_SYSTEM><MEAN_ELEMENT_THEORY>SGP4</MEAN_ELEMENT_THEORY></metadata><data><meanElements><EPOCH>2024-01-14T20:22:33.275136</EPOCH><MEAN_MOTION>14.32695972</MEAN_MOTION><ECCENTRICITY>.0002767</ECCENTRICITY><INCLINATION>44.9932</INCLINATION><RA_OF_ASC_NODE>183.8213</RA_OF_ASC_NODE><ARG_OF_PERICENTER>140.6992</ARG_OF_PERICENTER><MEAN_ANOMALY>219.4055</MEAN_ANOMALY></meanElements><tleParameters><EPHEMERIS_TYPE>0</EPHEMERIS_TYPE><CLASSIFICATION_TYPE>U</CLASSIFICATION_TYPE><NORAD_CAT_ID>25413</NORAD_CAT_ID><ELEMENT_SET_NO>999</ELEMENT_SET_NO><REV_AT_EPOCH>32863</REV_AT_EPOCH><BSTAR>.75858E-3</BSTAR><MEAN_MOTION_DOT>.1942E-4</MEAN_MOTION_DOT><MEAN_MOTION_DDOT>0</MEAN_MOTION_DDOT></tleParameters></data></segment></body></omm>
<omm id="CCSDS_OMM_VERS" version="2.0">
<header><CREATION_DATE/><ORIGINATOR/></header><body><segment><metadata><OBJECT_NAME>ORBCOMM FM18 [-]</OBJECT_NAME><OBJECT_ID>1998-046B</OBJECT_ID><CENTER_NAME>EARTH</CENTER_NAME><REF_FRAME>TEME</REF_FRAME><TIME_SYSTEM>UTC</TIME_SYSTEM><MEAN_ELEMENT_THEORY>SGP4</MEAN_ELEMENT_THEORY></metadata><data><meanElements><EPOCH>2024-01-14T15:27:45.696960</EPOCH><MEAN_MOTION>14.35316461</MEAN_MOTION><ECCENTRICITY>.0005666</ECCENTRICITY><INCLINATION>44.9935</INCLINATION><RA_OF_ASC_NODE>114.2898</RA_OF_ASC_NODE><ARG_OF_PERICENTER>199.8091</ARG_OF_PERICENTER><MEAN_ANOMALY>160.2537</MEAN_ANOMALY></meanElements><tleParameters><EPHEMERIS_TYPE>0</EPHEMERIS_TYPE><CLASSIFICATION_TYPE>U</CLASSIFICATION_TYPE><NORAD_CAT_ID>25414</NORAD_CAT_ID><ELEMENT_SET_NO>999</ELEMENT_SET_NO><REV_AT_EPOCH>32952</REV_AT_EPOCH><BSTAR>.10988E-2</BSTAR><MEAN_MOTION_DOT>.3038E-4</MEAN_MOTION_DOT><MEAN_MOTION_DDOT>0</MEAN_MOTION_DDOT></tleParameters></data></segment></body></omm>
<omm id="CCSDS_OMM_VERS" version="2.0">
<header><CREATION_DATE/><ORIGINATOR/></header><body><segment><metadata><OBJECT_NAME>ORBCOMM FM19 [+]</OBJECT_NAME><OBJECT_ID>1998-046C</OBJECT_ID><CENTER_NAME>EARTH</CENTER_NAME><REF_FRAME>TEME</REF_FRAME><TIME_SYSTEM>UTC</TIME_SYSTEM><MEAN_ELEMENT_THEORY>SGP4</MEAN_ELEMENT_THEORY></metadata><data><meanElements><EPOCH>2024-01-14T09:50:37.949280</EPOCH><MEAN_MOTION>14.35164925</MEAN_MOTION><ECCENTRICITY>.0004362</ECCENTRICITY><INCLINATION>44.9942</INCLINATION><RA_OF_ASC_NODE>116.6526</RA_OF_ASC_NODE><ARG_OF_PERICENTER>195.6742</ARG_OF_PERICENTER><MEAN_ANOMALY>277.3606</MEAN_ANOMALY></meanElements><tleParameters><EPHEMERIS_TYPE>0</EPHEMERIS_TYPE><CLASSIFICATION_TYPE>U</CLASSIFICATION_TYPE><NORAD_CAT_ID>25415</NORAD_CAT_ID><ELEMENT_SET_NO>999</ELEMENT_SET_NO><REV_AT_EPOCH>32945</REV_AT_EPOCH><BSTAR>.1074E-2</BSTAR><MEAN_MOTION_DOT>.2957E-4</MEAN_MOTION_DOT><MEAN_MOTION_DDOT>0</MEAN_MOTION_DDOT></tleParameters></data></segment></body></omm>

</ndm>
